{"type":"FeatureCollection","name":"Federal public lands","schema_version":1,"style_key":"agency","agency_order":["BLM","BLM wilderness","USFS"],"composition":{"note":"One overlay drawn from three bundled files. Each member's features take the member's agency as their style key; a member with a `select` contributes only the features whose properties match it exactly. This file draws no features of its own while national wildlife refuges are withheld (see `refuges`). Every member file is split one part per feature, so an overlay added by viewport can skip whatever is off screen.","members":[{"agency":"BLM","file":"geo/blm_lands.geojson","select":null},{"agency":"BLM wilderness","file":"geo/blm_wilderness.geojson","select":{"designation":"wilderness"}},{"agency":"USFS","file":"geo/usfs_forest_ownership.geojson","select":null}]},"part_provenance":"Each member file carries its own `source` member, copied into agencies.<agency>.source. No refuge tract ships (see `refuges`).","layer_caveats":["Each colour on this layer is a jurisdiction: which federal agency's ground the publishing agency says a block is. It is not permission to hunt or to enter, and it is not a survey or a property line.","BLM land, BLM wilderness and national forest land are drawn together here, simplified for display to roughly 50 metres (BLM wilderness to roughly 10). Near an edge, treat this as a guide and not as your position relative to the real boundary. National wildlife refuges are not drawn on this layer.","Closures, fire restrictions, forest orders and refuge rules are invisible here. This layer shows ground, not today's conditions.","Unpainted ground is not shown, and it is not a claim of any kind. Land inside these boundaries that the agency does not hold, and every class of land this layer does not draw, is left blank.","Where two colours overlap, both are published: BLM wilderness sits on BLM land, and a block can be administered by one agency and held by another. Neither is merged into the other."],"agencies":{"BLM":{"label":"BLM-administered land","what_it_is":"The Bureau of Land Management publishes this block as land whose surface it administers. It is BLM's own classification of the block, not a survey and not a finding of title by this app.","hunting_line":"Hunting here is governed by California regulations as on other BLM land. Which agency administers the ground does not decide whether a hunt is legal — season, licence, tag, method and zone rules do, and they are quoted and cited elsewhere in this app.","caveats":["BLM's own description of this data: “The SMA data do not illustrate land status ownership pattern boundaries or contain land ownership attribute details.” Where BLM administers a block another agency holds, the block names the holding agency.","Private inholdings that BLM's data carries are drawn as holes; one it does not carry is not shown at all.","BLM's own California cut is drawn as BLM publishes it and is not cut again by this app: 55 of its blocks lie outside CDFW's California county boundaries (offshore rocks, and parcels BLM's California office administers across the Nevada line)."],"parts":6539,"source":{"file":"geo/blm_lands.geojson","url":"https://gis.blm.gov/arcgis/rest/services/lands/BLM_Natl_SMA_Cached_BLM_Only/MapServer/2/query","doc":"BLM National Surface Management Agency Area Polygons, BLM-only cut (gis.blm.gov lands/BLM_Natl_SMA_Cached_BLM_Only MapServer layer 2)","fetched_at":"2026-09-05T02:51:38.531794+00:00","verified_at":"2026-09-04","provenance":"Copied from that file's own `source` member, built in the same run."}},"BLM wilderness":{"label":"Designated Wilderness (BLM)","what_it_is":"Congress has designated this area as wilderness and BLM administers it as part of the National Wilderness Preservation System.","hunting_line":"Hunting here is governed by California regulations as on other BLM land. Wilderness rules restrict how you travel and what equipment you may use (43 CFR 6300), not whether you may hunt.","caveats":["Designated wilderness only. BLM's wilderness study areas are not given this colour: they are not designated wilderness, and their ground is drawn as BLM land.","BLM publishes these boundaries as “generalized polygons”. They are drawn here at roughly 10 metres, from the same file as this app's separate BLM wilderness layer.","A wilderness can be administered by more than one agency, and this colour is BLM's portion only. Forest Service wilderness lies inside the Forest Service colour and is not coloured separately here."],"parts":747,"source":{"file":"geo/blm_wilderness.geojson","url":"https://gis.blm.gov/arcgis/rest/services/lands/BLM_Natl_NLCS_WLD_WSA/MapServer/0/query","doc":"BLM National Landscape Conservation System Wilderness and Wilderness Study Areas, California cut (gis.blm.gov lands/BLM_Natl_NLCS_WLD_WSA MapServer layers 0 and 1)","fetched_at":"2026-09-05T02:52:08.886131+00:00","verified_at":"2026-09-04","provenance":"Copied from that file's own `source` member, built in the same run."}},"USFS":{"label":"National Forest System land (Forest Service)","what_it_is":"The Forest Service classifies this block as land it owns and administers as part of the National Forest System. It is the agency's own classification of the block, not a survey and not a finding of title by this app.","hunting_line":"Hunting here is governed by California regulations as on other federal land. Which agency administers the ground does not decide whether a hunt is legal — season, licence, tag, method and zone rules do, and they are quoted and cited elsewhere in this app.","caveats":["This is a jurisdiction boundary, not a survey and not a property line. The Forest Service publishes it with the disclaimer quoted on this card, which says in the publisher's own words that it may not be used to determine ownership or boundaries.","This map draws Forest Service OWNERSHIP, not the proclaimed or administrative forest boundary. The two are very different: on Cleveland National Forest, 24.0% of the area inside the proclaimed line is not Forest Service land.","Land inside a national forest that is not Forest Service land is not drawn at all — neither the holes cut in these blocks nor, more often, the gaps between them. On Cleveland the holes account for about 38,900 acres while non-Forest-Service land inside the forest totals about 135,300, so most of it is in the gaps. Unpainted ground here is not shown, and it is not a claim of any kind.","Forest orders, temporary closures and fire restrictions are invisible here and this app does not carry them. They exist, they are current, and they can close roads, trails and whole districts. 36 CFR 261.50(f) states who to ask: \"Any person wishing to use a National Forest System road or trail or a portion of the National Forest System, should contact the Forest Supervisor, Director, Administrator, or District Ranger to ascertain the special restrictions which may be applicable thereto.\"","This app cuts the Forest Service's national layer down to California against CDFW's county boundaries, and about 100 of the blocks drawn here were cut by that. On a cut block part of the edge you see is that cut and not the forest's own boundary — the state line on the Nevada and Oregon sides, the coastline on the Pacific side. The forest continues past it."],"parts":2973,"source":{"file":"geo/usfs_forest_ownership.geojson","url":"https://apps.fs.usda.gov/arcx/rest/services/EDW/EDW_BasicOwnership_01/MapServer/0/query","doc":"USDA Forest Service Basic Ownership, Forest Service-owned land only, California (apps.fs.usda.gov EDW/EDW_BasicOwnership_01 MapServer layer 0)","fetched_at":"2026-09-05T05:30:06.023456+00:00","verified_at":"2026-09-04","provenance":"Copied from that file's own `source` member, built in the same run."},"use_constraint":{"text":"The USDA Forest Service makes no warranty, expressed or implied, including the warranties of merchantability and fitness for a particular purpose, nor assumes any legal liability or responsibility for the accuracy, reliability, completeness or utility of these geospatial data, or for the improper or incorrect use of these geospatial data. These geospatial data and related maps or graphics are not legal documents and are not intended to be used as such. The data and maps may not be used to determine title, ownership, legal descriptions or boundaries, legal jurisdiction, or restrictions that may be in place on either public or private land. Natural hazards may or may not be depicted on the data and maps, and land users should exercise due caution. The data are dynamic and may change over time. The user is responsible to verify the limitations of the geospatial data and to use the data accordingly.","source":"USDA Forest Service, EDW_BasicOwnership_01 MapServer copyrightText (read 2026-09-24)"}}},"statutory_basis":{"label":"The statute behind the words on this card","framing":"This app draws this boundary as a question of jurisdiction, not of permission, and the statute below is why the same words fit Forest Service land and BLM land. Read both subsections together: the first is quoted constantly on its own and means far less on its own than it appears to.","quotes":[{"cite":"16 U.S.C. § 7912(a)","heading":"In general","text":"Subject to subsection (b), Federal land shall be open to hunting, fishing, and recreational shooting, in accordance with applicable law, unless the Secretary concerned closes an area in accordance with section 7913 of this title."},{"cite":"16 U.S.C. § 7912(b)","heading":"Effect of part","text":"Nothing in this subchapter opens to hunting, fishing, or recreational shooting any land that is not open to those activities as of March 12, 2019."},{"cite":"16 U.S.C. § 7911(1)","heading":"Definition of “Federal land”","text":"The term “Federal land” means— (A) any land in the National Forest System (as defined in section 1609(a) of this title) that is administered by the Secretary of Agriculture, acting through the Chief of the Forest Service; and (B) public lands (as defined in section 1702 of title 43), the surface of which is administered by the Secretary, acting through the Director of the Bureau of Land Management."}],"closing":"So a hunt is legal here for the same reasons it is legal anywhere else in California — season, licence, tag, method and zone — and the closures the first subsection points at are exactly the ones this map cannot show you.","source_url":"https://uscode.house.gov/view.xhtml?req=granuleid:USC-prelim-title16-section7912","source_doc":"Office of the Law Revision Counsel, United States Code (prelim), Title 16 §§ 7911–7912 (Pub. L. 116–9, title IV, §§ 4101–4102, Mar. 12, 2019, 133 Stat. 757)","source_currency":"Text contains those laws in effect on September 4, 2026","verified_at":"2026-09-04"},"statutory_basis_applies_to":["BLM","BLM wilderness","USFS"],"refuges":{"included":false,"reason":"Owner ruling of 2026-09-04, standing: “scratch the refuge areas that the attorney needs to see. if needed we will ship that later down the line.” No national wildlife refuge geometry ships on this layer until the owner rules again.","ruling":{"date":"2026-09-04","quote":"scratch the refuge areas that the attorney needs to see. if needed we will ship that later down the line."},"parts_available":441,"card_withheld":"The refuge card below is kept for the day the owner allows refuges. It is not part of this overlay and is not to be shown.","card":{"label":"National wildlife refuge land (Fish and Wildlife Service)","what_it_is":"The U.S. Fish and Wildlife Service's realty records classify this tract as national wildlife refuge land the Service holds in fee. It is the Service's own classification, not a survey and not a finding of title by this app.","hunting_line":"This app carries no refuge rule of any kind. The statute this layer quotes for BLM and Forest Service land defines “Federal land” as those two classes only, so it is not a rule about this ground. The Service's own words on this card are the guidance this app can give: contact the refuge before you go.","caveats":["The Fish and Wildlife Service's own words about this data: “Although these boundaries represent lands administered by the U.S. Fish and Wildlife Service, not all areas are open to the public. Some fragile habitats need to be protected from human traffic and some management areas are closed. The public is urged to contact specific Refuges or other conservation areas before visiting.”","This layer draws refuge land the Service holds in FEE, and nothing else. Refuge land it holds by easement, lease, agreement or secondary jurisdiction is not drawn, so a refuge can be drawn in part or not at all. Easement land in particular is private land the Service holds a right over, and it is never painted here.","The Service's wildlife management areas, coordination areas and fish hatcheries are not national wildlife refuges and are not drawn.","This app cuts the Service's national layer down to California against CDFW's county boundaries, and 51 of the tracts drawn here were cut by that: on the Arizona and Oregon state lines, and along the shore of the ocean and San Francisco Bay, where those boundaries stop. The refuge continues past the cut. Because the boundaries stop at the shore, two California refuges are not drawn at all: Farallon Islands and Castle Rock."],"parts":441,"source":{"url":"https://services.arcgis.com/QVENGdaPbd4LUkLV/arcgis/rest/services/FWSInterest_Simplified_Authoritative/FeatureServer/0/query","doc":"U.S. Fish and Wildlife Service, FWS National Realty Tracts Simplified, National Wildlife Refuge fee tracts (services.arcgis.com QVENGdaPbd4LUkLV FWSInterest_Simplified_Authoritative FeatureServer layer 0)","fetched_at":"2026-09-25T03:40:33.422183+00:00","verified_at":"2026-09-24","source_features":50,"rights":"U.S. Fish and Wildlife Service, Division of Realty. United States Government work (17 U.S.C. § 105).","data_last_edit":"2026-08-24"},"use_constraint":{"text":"The United States Fish and Wildlife Service (Service) shall not be held liable for improper or incorrect use of the data described and/or contained herein.","source":"U.S. Fish and Wildlife Service, item licenseInfo for FWS National Realty Tracts Simplified (read 2026-09-24)"},"publisher_caveat":"Although these boundaries represent lands administered by the U.S. Fish and Wildlife Service, not all areas are open to the public. Some fragile habitats need to be protected from human traffic and some management areas are closed. The public is urged to contact specific Refuges or other conservation areas before visiting."}},"features":[]}